[{"OBJECT_NAME":"SITRO-AIS 42","OBJECT_ID":"2024-199X","EPOCH":"2026-03-09T22:21:47.562336","MEAN_MOTION":15.56144325,"ECCENTRICITY":0.0004269,"INCLINATION":97.3087,"RA_OF_ASC_NODE":305.2142,"ARG_OF_PERICENTER":282.8573,"MEAN_ANOMALY":77.2205,"EPHEMERIS_TYPE":0,"CLASSIFICATION_TYPE":"U","NORAD_CAT_ID":61756,"ELEMENT_SET_NO":999,"REV_AT_EPOCH":12230,"BSTAR":0.00091920276,"MEAN_MOTION_DOT":0.00064603,"MEAN_MOTION_DDOT":0},{"OBJECT_NAME":"STARLINK-36617","OBJECT_ID":"2026-020T","EPOCH":"2026-03-09T22:00:01.999584","MEAN_MOTION":15.57952197,"ECCENTRICITY":0.00017004,"INCLINATION":42.9998,"RA_OF_ASC_NODE":140.4898,"ARG_OF_PERICENTER":280.4794,"MEAN_ANOMALY":139.9373,"EPHEMERIS_TYPE":0,"CLASSIFICATION_TYPE":"U","NORAD_CAT_ID":67634,"ELEMENT_SET_NO":999,"REV_AT_EPOCH":593,"BSTAR":-0.028244508,"MEAN_MOTION_DOT":-0.01915394,"MEAN_MOTION_DDOT":0}]
